INMARSAT GX5            
1 44801U 19080B   26167.11667705  .00000075  00000+0  00000+0 0  9990
2 44801   0.0349 350.0297 0002238 111.4506 215.9452  1.00272505  6774
JCSAT-18 (KACIFIC 1)    
1 44868U 19091A   26166.78781051 -.00000200  00000+0  00000+0 0  9999
2 44868   0.0156 257.9159 0000448   5.6966  74.0536  1.00269633 23998
ELEKTRO-L 3             
1 44903U 19095A   26167.19608456 -.00000097  00000+0  00000+0 0  9990
2 44903   0.2541  81.4967 0000909 352.3882 337.1292  1.00271388 23695
SHIJIAN-20 (SJ-20)      
1 44910U 19097A   26166.90954737  .00000132  00000+0  00000+0 0  9993
2 44910   4.9159  75.0780 0013912  55.1151 146.3413  1.00277883 23686
TJS-5                   
1 44978U 20002A   26167.01780593 -.00000341  00000+0  00000+0 0  9998
2 44978   0.0150 307.0973 0007314  99.2794 331.8254  1.00269163 23698
GSAT-30                 
1 45026U 20005A   26167.13097712 -.00000165  00000+0  00000+0 0  9997
2 45026   0.0711  96.8216 0003336 348.0041 309.7177  1.00271098 23495
EUTELSAT KONNECT        
1 45027U 20005B   26166.03030797  .00000055  00000+0  00000+0 0  9993
2 45027   0.0725  97.8075 0001524 122.8326  60.8276  1.00271655 24312
JCSAT-17                
1 45245U 20013A   26167.03115316 -.00000316  00000+0  00000+0 0  9997
2 45245   5.3923 356.8642 0002328  85.4099 329.2648  1.00270340 23228
GEO-KOMPSAT-2B          
1 45246U 20013B   26166.95226014 -.00000343  00000+0  00000+0 0  9996
2 45246   0.0103 302.8330 0000769 326.5265 105.9512  1.00271217 23264
BEIDOU-3 G2             
1 45344U 20017A   26167.05914363 -.00000142  00000+0  00000+0 0  9999
2 45344   2.8614  47.3166 0002018  32.3100 286.0776  1.00272071 23247
AEHF-6 (USA 298)        
1 45465U 20022B   26166.99930729 -.00000296  00000+0  00000+0 0  9995
2 45465   2.5506 301.1415 0043195  17.0014  83.6600  1.00271668 23003
BEIDOU-3 G3             
1 45807U 20040A   26167.06512367 -.00000355  00000+0  00000+0 0  9994
2 45807   2.4438  67.4376 0002379 335.0646 355.7999  1.00267007 22057
APSTAR-6D               
1 45863U 20045A   26167.00320174 -.00000317  00000+0  00000+0 0  9996
2 45863   0.0515  93.8265 0002175 355.8821 309.7575  1.00270777 21841
KOREASAT 116            
1 45920U 20048A   26167.04072388 -.00000362  00000+0  00000+0 0  9998
2 45920   0.0265 291.6402 0000726 186.8398 276.7025  1.00269636 21620
EXPRESS 103             
1 45985U 20053A   26167.13362428 -.00000281  00000+0  00000+0 0  9992
2 45985   0.0182 288.3022 0000472   5.3981 115.3075  1.00272499 21636
EXPRESS 80              
1 45986U 20053B   26167.04355015 -.00000135  00000+0  00000+0 0  9995
2 45986   0.0174 305.3616 0001642 228.1862 186.4498  1.00271809 21610
BSAT-4B                 
1 46112U 20056A   26164.49851758  .00000000  00000+0  00000+0 0  9991
2 46112   0.0192  98.5475 0003746  17.2668  75.2961  1.00268721 21354
MEV-2                   
1 46113U 20056B   26166.68656492 -.00000009  00000+0  00000+0 0  9993
2 46113   0.0116 317.0110 0000298 255.8494 297.2601  1.00272857 80539
GALAXY 30 (G-30)        
1 46114U 20056C   26167.17336506  .00000037  00000+0  00000+0 0  9990
2 46114   0.0165  17.6847 0002086  67.8592 116.3081  1.00270980 21286
GAOFEN-13 01            
1 46610U 20071A   26166.92410744 -.00000362  00000+0  00000+0 0  9999
2 46610   0.5185  84.8580 0041392 123.7369 146.5038  1.00271117 20909
TIANTONG-1 2            
1 46916U 20082A   26166.99670729 -.00000355  00000+0  00000+0 0  9990
2 46916   0.7918 327.3754 0000936 101.6729 318.9759  1.00269829 20649
LUCAS (JDRS-1)          
1 47202U 20089A   26167.02083928 -.00000235  00000+0  00000+0 0  9997
2 47202   0.0614 273.1398 0002173 145.4006 304.0638  1.00268417 20403
SXM-7                   
1 47240U 20096A   26165.95705219 -.00000200  00000+0  00000+0 0  9993
2 47240   0.0312  98.3690 0003650  27.4675  36.8000  1.00271395  7423
CMS-01                  
1 47256U 20099A   26167.13097712 -.00000165  00000+0  00000+0 0  9997
2 47256   0.0961  95.0498 0003784 180.8878 118.6097  1.00270730 20182
TURKSAT 5A              
1 47306U 21001A   26167.12066374  .00000154  00000+0  00000+0 0  9993
2 47306   0.0177  53.7330 0000124 209.8750  75.1563  1.00270620 19955
TIANTONG-1 3            
1 47321U 21003A   26167.13063045 -.00000154  00000+0  00000+0 0  9996
2 47321   1.7576 339.2393 0003004 111.8059 301.9259  1.00270524 19953
TJS-6                   
1 47613U 21010A   26167.07855705  .00000043  00000+0  00000+0 0  9999
2 47613   0.2544 264.3264 0002929 225.1524 341.6482  1.00269006 19796
SBIRS GEO-5 (USA 315)   
1 48618U 21042A   26167.10650057 -.00000267  00000+0  00000+0 0  9996
2 48618   5.1049 329.1232 0001233 121.8975 305.5103  1.00270708 18766
FENGYUN 4B              
1 48808U 21047A   26167.02336670 -.00000330  00000+0  00000+0 0  9996
2 48808   0.1505  77.3623 0005924 275.1291  24.8227  1.00277097 18553
SXM-8                   
1 48838U 21049A   26166.31344440 -.00000202  00000+0  00000+0 0  9994
2 48838   0.0179  12.6016 0004989  18.1510 260.5396  1.00271311 18569
TIANLIAN 1-05           
1 49011U 21063A   26166.83271010  .00000108  00000+0  00000+0 0  9997
2 49011   1.5907  80.7162 0000478 324.9514 175.0229  1.00271514 18062
STAR ONE D2             
1 49055U 21069A   26166.17384541  .00000000  00000+0  00000+0 0  9993
2 49055   0.0162 337.8384 0002057 134.2817 143.8251  1.00270847 17922
