OBJECT_NAME,OBJECT_ID,EPOCH,MEAN_MOTION,ECCENTRICITY,INCLINATION,RA_OF_ASC_NODE,ARG_OF_PERICENTER,MEAN_ANOMALY,EPHEMERIS_TYPE,CLASSIFICATION_TYPE,NORAD_CAT_ID,ELEMENT_SET_NO,REV_AT_EPOCH,BSTAR,MEAN_MOTION_DOT,MEAN_MOTION_DDOT
INMARSAT GX5,2019-080B,2026-06-16T02:48:00.897120,1.00272505,.0002238,0.0349,350.0297,111.4506,215.9452,0,U,44801,999,677,0,.75E-6,0
JCSAT-18 (KACIFIC 1),2019-091A,2026-06-15T18:54:26.828064,1.00269633,.00004484,0.0156,257.9159,5.6966,74.0536,0,U,44868,999,2399,0,-.2E-5,0
ELEKTRO-L 3,2019-095A,2026-06-16T04:42:21.705984,1.00271388,.0000909,0.2541,81.4967,352.3882,337.1292,0,U,44903,999,2369,0,-.97E-6,0
SHIJIAN-20 (SJ-20),2019-097A,2026-06-15T21:49:44.892768,1.00277883,.0013912,4.9159,75.0780,55.1151,146.3413,0,U,44910,999,2368,0,.132E-5,0
TJS-5,2020-002A,2026-06-16T00:25:38.432352,1.00269163,.0007314,0.0150,307.0973,99.2794,331.8254,0,U,44978,999,2369,0,-.341E-5,0
GSAT-30,2020-005A,2026-06-16T03:08:36.423168,1.00271098,.0003336,0.0711,96.8216,348.0041,309.7177,0,U,45026,999,2349,0,-.165E-5,0
EUTELSAT KONNECT,2020-005B,2026-06-15T00:43:38.608608,1.00271655,.00015245,0.0725,97.8075,122.8326,60.8276,0,U,45027,999,2431,0,.55E-6,0
JCSAT-17,2020-013A,2026-06-16T00:44:51.633024,1.00270340,.0002328,5.3923,356.8642,85.4099,329.2648,0,U,45245,999,2322,0,-.316E-5,0
GEO-KOMPSAT-2B,2020-013B,2026-06-15T22:51:15.276096,1.00271217,.0000769,0.0103,302.8330,326.5265,105.9512,0,U,45246,999,2326,0,-.343E-5,0
BEIDOU-3 G2,2020-017A,2026-06-16T01:25:10.009632,1.00272071,.0002018,2.8614,47.3166,32.3100,286.0776,0,U,45344,999,2324,0,-.142E-5,0
AEHF-6 (USA 298),2020-022B,2026-06-15T23:59:00.149856,1.00271668,.0043195,2.5506,301.1415,17.0014,83.6600,0,U,45465,999,2300,0,-.296E-5,0
BEIDOU-3 G3,2020-040A,2026-06-16T01:33:46.685088,1.00267007,.0002379,2.4438,67.4376,335.0646,355.7999,0,U,45807,999,2205,0,-.355E-5,0
APSTAR-6D,2020-045A,2026-06-16T00:04:36.630336,1.00270777,.0002175,0.0515,93.8265,355.8821,309.7575,0,U,45863,999,2184,0,-.317E-5,0
KOREASAT 116,2020-048A,2026-06-16T00:58:38.543232,1.00269636,.0000726,0.0265,291.6402,186.8398,276.7025,0,U,45920,999,2162,0,-.362E-5,0
EXPRESS 103,2020-053A,2026-06-16T03:12:25.137792,1.00272499,.0000472,0.0182,288.3022,5.3981,115.3075,0,U,45985,999,2163,0,-.281E-5,0
EXPRESS 80,2020-053B,2026-06-16T01:02:42.732960,1.00271809,.0001642,0.0174,305.3616,228.1862,186.4498,0,U,45986,999,2161,0,-.135E-5,0
BSAT-4B,2020-056A,2026-06-13T11:57:51.918912,1.00268721,.00037461,0.0192,98.5475,17.2668,75.2961,0,U,46112,999,2135,0,0,0
MEV-2,2020-056B,2026-06-15T16:28:39.209088,1.00272857,.00002983,0.0116,317.0110,255.8494,297.2601,0,U,46113,999,8053,0,-.9E-7,0
GALAXY 30 (G-30),2020-056C,2026-06-16T04:09:38.741184,1.00270980,.0002086,0.0165,17.6847,67.8592,116.3081,0,U,46114,999,2128,0,.37E-6,0
GAOFEN-13 01,2020-071A,2026-06-15T22:10:42.882816,1.00271117,.0041392,0.5185,84.8580,123.7369,146.5038,0,U,46610,999,2090,0,-.362E-5,0
TIANTONG-1 2,2020-082A,2026-06-15T23:55:15.509856,1.00269829,.0000936,0.7918,327.3754,101.6729,318.9759,0,U,46916,999,2064,0,-.355E-5,0
LUCAS (JDRS-1),2020-089A,2026-06-16T00:30:00.513792,1.00268417,.0002173,0.0614,273.1398,145.4006,304.0638,0,U,47202,999,2040,0,-.235E-5,0
SXM-7,2020-096A,2026-06-14T22:58:09.309216,1.00271395,.00036508,0.0312,98.3690,27.4675,36.8000,0,U,47240,999,742,0,-.2E-5,0
CMS-01,2020-099A,2026-06-16T03:08:36.423168,1.00270730,.0003784,0.0961,95.0498,180.8878,118.6097,0,U,47256,999,2018,0,-.165E-5,0
TURKSAT 5A,2021-001A,2026-06-16T02:53:45.347136,1.00270620,.0000124,0.0177,53.7330,209.8750,75.1563,0,U,47306,999,1995,0,.154E-5,0
TIANTONG-1 3,2021-003A,2026-06-16T03:08:06.470880,1.00270524,.0003004,1.7576,339.2393,111.8059,301.9259,0,U,47321,999,1995,0,-.154E-5,0
TJS-6,2021-010A,2026-06-16T01:53:07.329120,1.00269006,.0002929,0.2544,264.3264,225.1524,341.6482,0,U,47613,999,1979,0,.43E-6,0
SBIRS GEO-5 (USA 315),2021-042A,2026-06-16T02:33:21.649248,1.00270708,.0001233,5.1049,329.1232,121.8975,305.5103,0,U,48618,999,1876,0,-.267E-5,0
FENGYUN 4B,2021-047A,2026-06-16T00:33:38.882880,1.00277097,.0005924,0.1505,77.3623,275.1291,24.8227,0,U,48808,999,1855,0,-.33E-5,0
SXM-8,2021-049A,2026-06-15T07:31:21.596160,1.00271311,.00049899,0.0179,12.6016,18.1510,260.5396,0,U,48838,999,1856,0,-.202E-5,0
TIANLIAN 1-05,2021-063A,2026-06-15T19:59:06.152640,1.00271514,.0000478,1.5907,80.7162,324.9514,175.0229,0,U,49011,999,1806,0,.108E-5,0
STAR ONE D2,2021-069A,2026-06-15T04:10:20.243424,1.00270847,.00020579,0.0162,337.8384,134.2817,143.8251,0,U,49055,999,1792,0,0,0
